{"fetched_at":"2026-07-09T18:16:44.960Z","source":"https://celestrak.org/NORAD/elements/gp.php?GROUP=planet&FORMAT=JSON","constellation":"superdove","records":[{"OBJECT_NAME":"FLOCK 4H-33","OBJECT_ID":"2025-276BY","EPOCH":"2026-07-08T15:39:06.489216","CLASSIFICATION_TYPE":"U","MEAN_MOTION":15.21138698,"ECCENTRICITY":0.00021391,"INCLINATION":97.4212,"RA_OF_ASC_NODE":263.2361,"ARG_OF_PERICENTER":180.1602,"MEAN_ANOMALY":179.9633,"EPHEMERIS_TYPE":0,"NORAD_CAT_ID":66736,"ELEMENT_SET_NO":999,"REV_AT_EPOCH":3370,"BSTAR":0.00018535436,"MEAN_MOTION_DOT":0.00004058,"MEAN_MOTION_DDOT":0},{"OBJECT_NAME":"FLOCK 4H-34","OBJECT_ID":"2025-276BZ","EPOCH":"2026-07-08T12:08:39.272640","CLASSIFICATION_TYPE":"U","MEAN_MOTION":15.20779015,"ECCENTRICITY":0.00018561,"INCLINATION":97.4226,"RA_OF_ASC_NODE":263.0175,"ARG_OF_PERICENTER":190.0363,"MEAN_ANOMALY":170.0835,"EPHEMERIS_TYPE":0,"NORAD_CAT_ID":66737,"ELEMENT_SET_NO":999,"REV_AT_EPOCH":3292,"BSTAR":0.00022413351,"MEAN_MOTION_DOT":0.00004869,"MEAN_MOTION_DDOT":0},{"OBJECT_NAME":"FLOCK 4H-35","OBJECT_ID":"2025-276CA","EPOCH":"2026-07-08T17:53:25.913184","CLASSIFICATION_TYPE":"U","MEAN_MOTION":15.20899914,"ECCENTRICITY":0.00020061,"INCLINATION":97.4188,"RA_OF_ASC_NODE":263.1934,"ARG_OF_PERICENTER":166.05,"MEAN_ANOMALY":194.0791,"EPHEMERIS_TYPE":0,"NORAD_CAT_ID":66738,"ELEMENT_SET_NO":999,"REV_AT_EPOCH":3300,"BSTAR":0.00022049128,"MEAN_MOTION_DOT":0.00004806,"MEAN_MOTION_DDOT":0},{"OBJECT_NAME":"FLOCK 4H-36","OBJECT_ID":"2025-276CB","EPOCH":"2026-07-08T10:53:43.077984","CLASSIFICATION_TYPE":"U","MEAN_MOTION":15.20662415,"ECCENTRICITY":0.00017666,"INCLINATION":97.4237,"RA_OF_ASC_NODE":262.9595,"ARG_OF_PERICENTER":207.978,"MEAN_ANOMALY":152.1361,"EPHEMERIS_TYPE":0,"NORAD_CAT_ID":66739,"ELEMENT_SET_NO":999,"REV_AT_EPOCH":3366,"BSTAR":0.00016074643,"MEAN_MOTION_DOT":0.0000346,"MEAN_MOTION_DDOT":0}]}
